STARLINK-35507          
1 66327U 25253J   25321.50003471 -.01686936  00000+0 -86524-2 0  9991
2 66327  42.9962 133.9013 0001458 275.0175 206.1618 15.83383932  2970
STARLINK-35460          
1 66328U 25253K   25321.50003471 -.01810331  00000+0 -92853-2 0  9992
2 66328  42.9954 133.8458 0001519 273.3402 229.1996 15.83099067  2973
STARLINK-35505          
1 66329U 25253L   25321.50003471 -.01677712  00000+0 -85899-2 0  9999
2 66329  42.9961 133.9074 0001540 269.8037 209.1556 15.83401699  2872
STARLINK-35512          
1 66330U 25253M   25321.50003471 -.01775381  00000+0 -90671-2 0  9996
2 66330  42.9957 133.8739 0001542 271.3643 220.6204 15.83132393  2879
STARLINK-35257          
1 66331U 25253N   25321.50003471 -.01838457  00000+0 -94621-2 0  9990
2 66331  42.9957 133.8303 0001436 272.0208 236.9704 15.83073231  2605
STARLINK-35322          
1 66332U 25253P   25321.50003471 -.01795528  00000+0 -91947-2 0  9990
2 66332  42.9957 133.8569 0001537 271.6673 226.6723 15.83108566  2879
STARLINK-35400          
1 66333U 25253Q   25321.50003471 -.01828914  00000+0 -94058-2 0  9993
2 66333  42.9953 133.8347 0001526 269.6716 237.2585 15.83072783  2878
STARLINK-35407          
1 66334U 25253R   25321.50003471 -.01814282  00000+0 -93105-2 0  9999
2 66334  42.9961 133.8521 0001392 271.9041 228.6834 15.83095933  2873
STARLINK-35417          
1 66335U 25253S   25321.50003471 -.01870480  00000+0 -96833-2 0  9993
2 66335  42.9958 133.8077 0001456 269.4383 248.4698 15.83002884  2879
STARLINK-35404          
1 66336U 25253T   25321.50003471 -.01847914  00000+0 -95383-2 0  9999
2 66336  42.9956 133.8242 0001508 269.5427 241.9534 15.83027267  2970
STARLINK-34783          
1 66337U 25253U   25321.50003471 -.01887869  00000+0 -98208-2 0  9992
2 66337  42.9957 133.8008 0001436 271.3012 249.3848 15.82930218  2926
STARLINK-35477          
1 66338U 25253V   25321.50003471 -.01867903  00000+0 -96776-2 0  9998
2 66338  42.9955 133.8134 0001411 271.1750 244.8767 15.82982901  2976
