CCSDS_OMM_VERS = 2.0
CREATION_DATE  = 
ORIGINATOR     = 

OBJECT_NAME    = STARLINK-35507
OBJECT_ID      = 2025-253J
CENTER_NAME    = EARTH
REF_FRAME      = TEME
TIME_SYSTEM    = UTC
MEAN_ELEMENT_THEORY = SGP/SGP4

EPOCH          = 2025-11-17T12:00:02.998944
MEAN_MOTION    = 15.83383932
ECCENTRICITY   = .0001458
INCLINATION    = 42.9962
RA_OF_ASC_NODE = 133.9013
ARG_OF_PERICENTER = 275.0175
MEAN_ANOMALY   = 206.1618

EPHEMERIS_TYPE = 0
CLASSIFICATION_TYPE = U
NORAD_CAT_ID   = 66327
ELEMENT_SET_NO = 999
REV_AT_EPOCH   = 297
BSTAR          = -.86524E-2
MEAN_MOTION_DOT = -.1686936E-1
MEAN_MOTION_DDOT = 0

CCSDS_OMM_VERS = 2.0
CREATION_DATE  = 
ORIGINATOR     = 

OBJECT_NAME    = STARLINK-35460
OBJECT_ID      = 2025-253K
CENTER_NAME    = EARTH
REF_FRAME      = TEME
TIME_SYSTEM    = UTC
MEAN_ELEMENT_THEORY = SGP/SGP4

EPOCH          = 2025-11-17T12:00:02.998944
MEAN_MOTION    = 15.83099067
ECCENTRICITY   = .0001519
INCLINATION    = 42.9954
RA_OF_ASC_NODE = 133.8458
ARG_OF_PERICENTER = 273.3402
MEAN_ANOMALY   = 229.1996

EPHEMERIS_TYPE = 0
CLASSIFICATION_TYPE = U
NORAD_CAT_ID   = 66328
ELEMENT_SET_NO = 999
REV_AT_EPOCH   = 297
BSTAR          = -.92853E-2
MEAN_MOTION_DOT = -.1810331E-1
MEAN_MOTION_DDOT = 0

CCSDS_OMM_VERS = 2.0
CREATION_DATE  = 
ORIGINATOR     = 

OBJECT_NAME    = STARLINK-35505
OBJECT_ID      = 2025-253L
CENTER_NAME    = EARTH
REF_FRAME      = TEME
TIME_SYSTEM    = UTC
MEAN_ELEMENT_THEORY = SGP/SGP4

EPOCH          = 2025-11-17T12:00:02.998944
MEAN_MOTION    = 15.83401699
ECCENTRICITY   = .000154
INCLINATION    = 42.9961
RA_OF_ASC_NODE = 133.9074
ARG_OF_PERICENTER = 269.8037
MEAN_ANOMALY   = 209.1556

EPHEMERIS_TYPE = 0
CLASSIFICATION_TYPE = U
NORAD_CAT_ID   = 66329
ELEMENT_SET_NO = 999
REV_AT_EPOCH   = 287
BSTAR          = -.85899E-2
MEAN_MOTION_DOT = -.1677712E-1
MEAN_MOTION_DDOT = 0

CCSDS_OMM_VERS = 2.0
CREATION_DATE  = 
ORIGINATOR     = 

OBJECT_NAME    = STARLINK-35512
OBJECT_ID      = 2025-253M
CENTER_NAME    = EARTH
REF_FRAME      = TEME
TIME_SYSTEM    = UTC
MEAN_ELEMENT_THEORY = SGP/SGP4

EPOCH          = 2025-11-17T12:00:02.998944
MEAN_MOTION    = 15.83132393
ECCENTRICITY   = .0001542
INCLINATION    = 42.9957
RA_OF_ASC_NODE = 133.8739
ARG_OF_PERICENTER = 271.3643
MEAN_ANOMALY   = 220.6204

EPHEMERIS_TYPE = 0
CLASSIFICATION_TYPE = U
NORAD_CAT_ID   = 66330
ELEMENT_SET_NO = 999
REV_AT_EPOCH   = 287
BSTAR          = -.90671E-2
MEAN_MOTION_DOT = -.1775381E-1
MEAN_MOTION_DDOT = 0

CCSDS_OMM_VERS = 2.0
CREATION_DATE  = 
ORIGINATOR     = 

OBJECT_NAME    = STARLINK-35257
OBJECT_ID      = 2025-253N
CENTER_NAME    = EARTH
REF_FRAME      = TEME
TIME_SYSTEM    = UTC
MEAN_ELEMENT_THEORY = SGP/SGP4

EPOCH          = 2025-11-17T12:00:02.998944
MEAN_MOTION    = 15.83073231
ECCENTRICITY   = .0001436
INCLINATION    = 42.9957
RA_OF_ASC_NODE = 133.8303
ARG_OF_PERICENTER = 272.0208
MEAN_ANOMALY   = 236.9704

EPHEMERIS_TYPE = 0
CLASSIFICATION_TYPE = U
NORAD_CAT_ID   = 66331
ELEMENT_SET_NO = 999
REV_AT_EPOCH   = 260
BSTAR          = -.94621E-2
MEAN_MOTION_DOT = -.1838457E-1
MEAN_MOTION_DDOT = 0

CCSDS_OMM_VERS = 2.0
CREATION_DATE  = 
ORIGINATOR     = 

OBJECT_NAME    = STARLINK-35322
OBJECT_ID      = 2025-253P
CENTER_NAME    = EARTH
REF_FRAME      = TEME
TIME_SYSTEM    = UTC
MEAN_ELEMENT_THEORY = SGP/SGP4

EPOCH          = 2025-11-17T12:00:02.998944
MEAN_MOTION    = 15.83108566
ECCENTRICITY   = .0001537
INCLINATION    = 42.9957
RA_OF_ASC_NODE = 133.8569
ARG_OF_PERICENTER = 271.6673
MEAN_ANOMALY   = 226.6723

EPHEMERIS_TYPE = 0
CLASSIFICATION_TYPE = U
NORAD_CAT_ID   = 66332
ELEMENT_SET_NO = 999
REV_AT_EPOCH   = 287
BSTAR          = -.91947E-2
MEAN_MOTION_DOT = -.1795528E-1
MEAN_MOTION_DDOT = 0

CCSDS_OMM_VERS = 2.0
CREATION_DATE  = 
ORIGINATOR     = 

OBJECT_NAME    = STARLINK-35400
OBJECT_ID      = 2025-253Q
CENTER_NAME    = EARTH
REF_FRAME      = TEME
TIME_SYSTEM    = UTC
MEAN_ELEMENT_THEORY = SGP/SGP4

EPOCH          = 2025-11-17T12:00:02.998944
MEAN_MOTION    = 15.83072783
ECCENTRICITY   = .0001526
INCLINATION    = 42.9953
RA_OF_ASC_NODE = 133.8347
ARG_OF_PERICENTER = 269.6716
MEAN_ANOMALY   = 237.2585

EPHEMERIS_TYPE = 0
CLASSIFICATION_TYPE = U
NORAD_CAT_ID   = 66333
ELEMENT_SET_NO = 999
REV_AT_EPOCH   = 287
BSTAR          = -.94058E-2
MEAN_MOTION_DOT = -.1828914E-1
MEAN_MOTION_DDOT = 0

CCSDS_OMM_VERS = 2.0
CREATION_DATE  = 
ORIGINATOR     = 

OBJECT_NAME    = STARLINK-35407
OBJECT_ID      = 2025-253R
CENTER_NAME    = EARTH
REF_FRAME      = TEME
TIME_SYSTEM    = UTC
MEAN_ELEMENT_THEORY = SGP/SGP4

EPOCH          = 2025-11-17T12:00:02.998944
MEAN_MOTION    = 15.83095933
ECCENTRICITY   = .0001392
INCLINATION    = 42.9961
RA_OF_ASC_NODE = 133.8521
ARG_OF_PERICENTER = 271.9041
MEAN_ANOMALY   = 228.6834

EPHEMERIS_TYPE = 0
CLASSIFICATION_TYPE = U
NORAD_CAT_ID   = 66334
ELEMENT_SET_NO = 999
REV_AT_EPOCH   = 287
BSTAR          = -.93105E-2
MEAN_MOTION_DOT = -.1814282E-1
MEAN_MOTION_DDOT = 0

CCSDS_OMM_VERS = 2.0
CREATION_DATE  = 
ORIGINATOR     = 

OBJECT_NAME    = STARLINK-35417
OBJECT_ID      = 2025-253S
CENTER_NAME    = EARTH
REF_FRAME      = TEME
TIME_SYSTEM    = UTC
MEAN_ELEMENT_THEORY = SGP/SGP4

EPOCH          = 2025-11-17T12:00:02.998944
MEAN_MOTION    = 15.83002884
ECCENTRICITY   = .0001456
INCLINATION    = 42.9958
RA_OF_ASC_NODE = 133.8077
ARG_OF_PERICENTER = 269.4383
MEAN_ANOMALY   = 248.4698

EPHEMERIS_TYPE = 0
CLASSIFICATION_TYPE = U
NORAD_CAT_ID   = 66335
ELEMENT_SET_NO = 999
REV_AT_EPOCH   = 287
BSTAR          = -.96833E-2
MEAN_MOTION_DOT = -.187048E-1
MEAN_MOTION_DDOT = 0

CCSDS_OMM_VERS = 2.0
CREATION_DATE  = 
ORIGINATOR     = 

OBJECT_NAME    = STARLINK-35404
OBJECT_ID      = 2025-253T
CENTER_NAME    = EARTH
REF_FRAME      = TEME
TIME_SYSTEM    = UTC
MEAN_ELEMENT_THEORY = SGP/SGP4

EPOCH          = 2025-11-17T12:00:02.998944
MEAN_MOTION    = 15.83027267
ECCENTRICITY   = .0001508
INCLINATION    = 42.9956
RA_OF_ASC_NODE = 133.8242
ARG_OF_PERICENTER = 269.5427
MEAN_ANOMALY   = 241.9534

EPHEMERIS_TYPE = 0
CLASSIFICATION_TYPE = U
NORAD_CAT_ID   = 66336
ELEMENT_SET_NO = 999
REV_AT_EPOCH   = 297
BSTAR          = -.95383E-2
MEAN_MOTION_DOT = -.1847914E-1
MEAN_MOTION_DDOT = 0

CCSDS_OMM_VERS = 2.0
CREATION_DATE  = 
ORIGINATOR     = 

OBJECT_NAME    = STARLINK-34783
OBJECT_ID      = 2025-253U
CENTER_NAME    = EARTH
REF_FRAME      = TEME
TIME_SYSTEM    = UTC
MEAN_ELEMENT_THEORY = SGP/SGP4

EPOCH          = 2025-11-17T12:00:02.998944
MEAN_MOTION    = 15.82930218
ECCENTRICITY   = .0001436
INCLINATION    = 42.9957
RA_OF_ASC_NODE = 133.8008
ARG_OF_PERICENTER = 271.3012
MEAN_ANOMALY   = 249.3848

EPHEMERIS_TYPE = 0
CLASSIFICATION_TYPE = U
NORAD_CAT_ID   = 66337
ELEMENT_SET_NO = 999
REV_AT_EPOCH   = 292
BSTAR          = -.98208E-2
MEAN_MOTION_DOT = -.1887869E-1
MEAN_MOTION_DDOT = 0

CCSDS_OMM_VERS = 2.0
CREATION_DATE  = 
ORIGINATOR     = 

OBJECT_NAME    = STARLINK-35477
OBJECT_ID      = 2025-253V
CENTER_NAME    = EARTH
REF_FRAME      = TEME
TIME_SYSTEM    = UTC
MEAN_ELEMENT_THEORY = SGP/SGP4

EPOCH          = 2025-11-17T12:00:02.998944
MEAN_MOTION    = 15.82982901
ECCENTRICITY   = .0001411
INCLINATION    = 42.9955
RA_OF_ASC_NODE = 133.8134
ARG_OF_PERICENTER = 271.1750
MEAN_ANOMALY   = 244.8767

EPHEMERIS_TYPE = 0
CLASSIFICATION_TYPE = U
NORAD_CAT_ID   = 66338
ELEMENT_SET_NO = 999
REV_AT_EPOCH   = 297
BSTAR          = -.96776E-2
MEAN_MOTION_DOT = -.1867903E-1
MEAN_MOTION_DDOT = 0

